XRISM                   
1 57800U 23137A   24256.89384165  .00018165  00000+0  13197-2 0  9992
2 57800  31.0017 173.7846 0009536 353.9716   6.0804 15.02702521 55886
